{
  "type": "FeatureCollection",
  "name": "fault_buffers_step03",
  "crs_note": "WGS 84 geographic coordinates (EPSG:4326); buffers computed in EPSG:32640",
  "features": [
    {
      "type": "Feature",
      "geometry": {
        "type": "Polygon",
        "coordinates": [
          [
            [
              54.21175779724588,
              29.2117944096388
            ],
            [
              54.21192054510076,
              29.21166712037857
            ],
            [
              54.31153171218918,
              29.131975158000536
            ],
            [
              54.41111025808624,
              29.067247022614904
            ],
            [
              54.411889344271664,
              29.06668591556508
            ],
            [
              54.41260206957364,
              29.066060416217283
            ],
            [
              54.41324156987535,
              29.065376549566608
            ],
            [
              54.41380168675322,
              29.06464090272727
            ],
            [
              54.41427702677373,
              29.06386056145248
            ],
            [
              54.41466301340447,
              29.06304304185366
            ],
            [
              54.414955931040375,
              29.06219621797779
            ],
            [
              54.415152960723354,
              29.061328245941933
            ],
            [
              54.41525220721349,
              29.060447485357056
            ],
            [
              54.415252717154196,
              29.05956241879859
            ],
            [
              54.415154488159736,
              29.058681570100507
            ],
            [
              54.41495846874115,
              29.057813422260004
            ],
            [
              54.414666549075044,
              29.056966335743837
            ],
            [
              54.41428154270788,
              29.056148467983004
            ],
            [
              54.413807159375494,
              29.055367694830405
            ],
            [
              54.41324796920276,
              29.054631534737567
            ],
            [
              54.412609358631215,
              29.053947076379323
            ],
            [
              54.41189747850111,
              29.053320910422535
            ],
            [
              54.41111918478973,
              29.052759066094318
            ],
            [
              54.41028197257766,
              29.05226695315931
            ],
            [
              54.409393903879064,
              29.051849309862998
            ],
            [
              54.40846353003081,
              29.051510157341013
            ],
            [
              54.407499809386415,
              29.05125276093168
            ],
            [
              54.406512021105776,
              29.05107959876301
            ],
            [
              54.40550967586854,
              29.050992337915357
            ],
            [
              54.404502424367806,
              29.050991818388322
            ],
            [
              54.403499964462476,
              29.05107804502528
            ],
            [
              54.402511947878374,
              29.051250187472867
            ],
            [
              54.40154788735333,
              29.05150658817557
            ],
            [
              54.40061706511658,
              29.05184477832858
            ],
            [
              54.39972844358027,
              29.05226150163549
            ],
            [
              54.3988905791002,
              29.052752745642927
            ],
            [
              54.298894508900204,
              29.11774845207124
            ],
            [
              54.29807836201396,
              29.11833760788269
            ],
            [
              54.198160946864014,
              29.198268181683435
            ],
            [
              54.11324519675917,
              29.263201150739246
            ],
            [
              54.11251770996173,
              29.263814405187276
            ],
            [
              54.111862268653,
              29.26448722779508
            ],
            [
              54.11128518529117,
              29.265213140030568
            ],
            [
              54.11079201819847,
              29.26598515205849
            ],
            [
              54.11038751800482,
              29.2667958300141
            ],
            [
              54.11007558185221,
              29.267637367555718
            ],
            [
              54.10985921580224,
              29.26850166100833
            ],
            [
              54.109740505811374,
              29.26938038737589
            ],
            [
              54.109720597556304,
              29.270265084472438
            ],
            [
              54.10979968530689,
              29.271147232401034
            ],
            [
              54.10997700995756,
              29.272018335596496
            ],
            [
              54.11025086623979,
              29.27287000464227
            ],
            [
              54.110618619049994,
              29.27369403707343
            ],
            [
              54.11107672873931,
              29.274482496387165
            ],
            [
              54.111620785124934,
              29.275227788499517
            ],
            [
              54.11224554989858,
              29.275922734910896
            ],
            [
              54.112945007026084,
              29.276560641874656
            ],
            [
              54.11371242065457,
              29.27713536490124
            ],
            [
              54.11454039997077,
              29.277641367975153
            ],
            [
              54.11542097038622,
              29.278073776912844
            ],
            [
              54.11634565036366,
              29.278428426345915
            ],
            [
              54.1173055331435,
              29.27870189987575
            ],
            [
              54.11829137258177,
              29.278891563011054
            ],
            [
              54.11929367227049,
              29.2789955885699
            ],
            [
              54.12030277707912,
              29.27901297430045
            ],
            [
              54.1213089662326,
              29.278943552549645
            ],
            [
              54.12230254702542,
              29.27878799188626
            ],
            [
              54.12327394826602,
              29.278547790662195
            ],
            [
              54.1242138125473,
              29.278225262574185
            ],
            [
              54.125113086451385,
              29.277823514365128
            ],
            [
              54.12596310781629,
              29.277346415880572
            ],
            [
              54.126755689221156,
              29.276798562769592
            ],
            [
              54.21175779724588,
              29.2117944096388
            ]
          ]
        ]
      },
      "properties": {
        "fault_id": "FLT-01",
        "fault_name_fa": "پهنه گسلی اصلی زاگرس / مرز افیولیت نیریز",
        "fault_name_en": "Main Zagros thrust / Neyriz ophiolite boundary fault zone",
        "buffer_km": 1,
        "buffer_distance_m": 1000,
        "precision_class": "B",
        "geometry_method": "metric buffer around approximate fault trace in UTM zone 40N",
        "source_ids": "S1;S2;S3;S4",
        "buffer_crs": "EPSG:32640",
        "boundary_status_fa": "بافر دقیق محاسباتی است اما بر مبنای خط گسل تقریبی ساخته شده است."
      }
    },
    {
      "type": "Feature",
      "geometry": {
        "type": "Polygon",
        "coordinates": [
          [
            [
              54.218516478460636,
              29.218588530999956
            ],
            [
              54.21884198143488,
              29.218333936328037
            ],
            [
              54.31806429488081,
              29.13895004793258
            ],
            [
              54.41722135374736,
              29.07449381323671
            ],
            [
              54.41877957278302,
              29.073371526752233
            ],
            [
              54.420205036054995,
              29.072120452057156
            ],
            [
              54.421484014846726,
              29.070752642064935
            ],
            [
              54.422604193154214,
              29.069281273953063
            ],
            [
              54.42355478624689,
              29.067720522089544
            ],
            [
              54.42432664440698,
              29.066085421361183
            ],
            [
              54.42491234085301,
              29.064391722225924
            ],
            [
              54.4253062430083,
              29.06265573889133
            ],
            [
              54.42550456643783,
              29.060894192086213
            ],
            [
              54.42550541094599,
              29.059124047944344
            ],
            [
              54.42530877850097,
              29.057362354554943
            ],
            [
              54.424916572827584,
              29.05562607775608
            ],
            [
              54.42433258068744,
              29.053931937753816
            ],
            [
              54.423562435041475,
              29.05229624813937
            ],
            [
              54.422613560463816,
              29.050734758853803
            ],
            [
              54.42149510134563,
              29.04926250460915
            ],
            [
              54.420217833591515,
              29.04789366022208
            ],
            [
              54.41879406066811,
              29.04664140424862
            ],
            [
              54.417237495012486,
              29.045517792227244
            ],
            [
              54.41556312594643,
              29.044533640745207
            ],
            [
              54.41378707536967,
              29.04369842343816
            ],
            [
              54.411926442619844,
              29.043020179918095
            ],
            [
              54.409999139988685,
              29.04250543850037
            ],
            [
              54.408023720470986,
              29.04215915346824
            ],
            [
              54.406019199395544,
              29.041984657473822
            ],
            [
              54.40400487164414,
              29.041983629529653
            ],
            [
              54.40200012620545,
              29.042156078895562
            ],
            [
              54.40002425983565,
              29.042500345014115
            ],
            [
              54.39809629160529,
              29.043013113494155
            ],
            [
              54.396234780103775,
              29.043689447988868
            ],
            [
              54.39445764504775,
              29.044522837662946
            ],
            [
              54.39278199499845,
              29.045505259794517
            ],
            [
              54.292789856122596,
              29.110496674629545
            ],
            [
              54.29115761146345,
              29.111674910255957
            ],
            [
              54.191322780943494,
              29.19153606758787
            ],
            [
              54.10649127914748,
              29.256402015275214
            ],
            [
              54.10503632649515,
              29.257628448073767
            ],
            [
              54.10372542999429,
              29.25897401567326
            ],
            [
              54.10257121508996,
              29.260425763990266
            ],
            [
              54.10158480027261,
              29.26196971627943
            ],
            [
              54.10077568989502,
              29.26359100756883
            ],
            [
              54.10015168246252,
              29.26527402765891
            ],
            [
              54.09971879528638,
              29.2670025713141
            ],
            [
              54.09948120623544,
              29.26875999420623
            ],
            [
              54.09944121315814,
              29.270529373112453
            ],
            [
              54.09959921137907,
              29.272293668828723
            ],
            [
              54.099953689501035,
              29.27403589023245
            ],
            [
              54.10050124356807,
              29.275739257915657
            ],
            [
              54.1012366094681,
              29.2773873658127
            ],
            [
              54.10215271327787,
              29.278964339264988
            ],
            [
              54.10324073907867,
              29.28045498799765
            ],
            [
              54.104490213601906,
              29.281844952531603
            ],
            [
              54.10588910689909,
              29.283120842615986
            ],
            [
              54.10742394807429,
              29.284270366342547
            ],
            [
              54.10907995496927,
              29.28528244869238
            ],
            [
              54.110841176554025,
              29.28614733836662
            ],
            [
              54.11269064665065,
              29.286856701866007
            ],
            [
              54.11461054750555,
              29.287403703906282
            ],
            [
              54.116582381628255,
              29.28778307338931
            ],
            [
              54.118587150232216,
              29.287991154288587
            ],
            [
              54.12060553654783,
              29.28802594095473
            ],
            [
              54.12261809222871,
              29.287887097497112
            ],
            [
              54.12460542504189,
              29.287575961052248
            ],
            [
              54.12654838601896,
              29.28709552890654
            ],
            [
              54.1284282542508,
              29.286450429597057
            ],
            [
              54.13022691753157,
              29.285646878270096
            ],
            [
              54.13192704709867,
              29.284692616730158
            ],
            [
              54.13351226477393,
              29.283596838760097
            ],
            [
              54.218516478460636,
              29.218588530999956
            ]
          ]
        ]
      },
      "properties": {
        "fault_id": "FLT-01",
        "fault_name_fa": "پهنه گسلی اصلی زاگرس / مرز افیولیت نیریز",
        "fault_name_en": "Main Zagros thrust / Neyriz ophiolite boundary fault zone",
        "buffer_km": 2,
        "buffer_distance_m": 2000,
        "precision_class": "B",
        "geometry_method": "metric buffer around approximate fault trace in UTM zone 40N",
        "source_ids": "S1;S2;S3;S4",
        "buffer_crs": "EPSG:32640",
        "boundary_status_fa": "بافر دقیق محاسباتی است اما بر مبنای خط گسل تقریبی ساخته شده است."
      }
    },
    {
      "type": "Feature",
      "geometry": {
        "type": "Polygon",
        "coordinates": [
          [
            [
              54.17486941382151,
              29.252529704043138
            ],
            [
              54.19486332291069,
              29.192531137711832
            ],
            [
              54.21485778862261,
              29.132530950837463
            ],
            [
              54.21509282965758,
              29.13167040161409
            ],
            [
              54.21523066559823,
              29.130793768484974
            ],
            [
              54.21526997139653,
              29.129909494367535
            ],
            [
              54.2152103710279,
              29.12902609556005
            ],
            [
              54.215052441015914,
              29.128152079715353
            ],
            [
              54.21479770478254,
              29.127295863905925
            ],
            [
              54.21444861788185,
              29.1264656935698
            ],
            [
              54.21400854426317,
              29.12566956311744
            ],
            [
              54.213481723795674,
              29.12491513896365
            ],
            [
              54.212873231370025,
              29.12420968572487
            ],
            [
              54.21218892797377,
              29.123559996291558
            ],
            [
              54.2114354042133,
              29.122972326447748
            ],
            [
              54.21061991682778,
              29.12245233466595
            ],
            [
              54.209750318806925,
              29.12200502765551
            ],
            [
              54.20883498378545,
              29.12163471218737
            ],
            [
              54.20788272544156,
              29.121344953657424
            ],
            [
              54.206902712673894,
              29.121138541786127
            ],
            [
              54.20590438137192,
              29.12101746378303
            ],
            [
              54.20489734362641,
              29.120982885233953
            ],
            [
              54.20389129525138,
              29.121035138893358
            ],
            [
              54.20289592250446,
              29.121173721489622
            ],
            [
              54.20192080890047,
              29.1213972985734
            ],
            [
              54.20097534301165,
              29.12170371736225
            ],
            [
              54.200068628139185,
              29.122090027458324
            ],
            [
              54.1992093947222,
              29.122552509239917
            ],
            [
              54.19840591632502,
              29.12308670965448
            ],
            [
              54.19766593000902,
              29.12368748506939
            ],
            [
              54.19699656185421,
              29.124349050769187
            ],
            [
              54.19640425834624,
              29.12506503662408
            ],
            [
              54.195894724289325,
              29.12582854839518
            ],
            [
              54.19547286784296,
              29.1266322340876
            ],
            [
              54.195142753212664,
              29.127468354714274
            ],
            [
              54.175137761861194,
              29.18746654483652
            ],
            [
              54.15513167396224,
              29.247467972802326
            ],
            [
              54.135125568091055,
              29.307469403643704
            ],
            [
              54.13489007392737,
              29.30832987439068
            ],
            [
              54.13475193818188,
              29.309206432351765
            ],
            [
              54.13471249358483,
              29.310090636262498
            ],
            [
              54.13477212254341,
              29.31097397101636
            ],
            [
              54.134930253361595,
              29.311847929659915
            ],
            [
              54.1351853656473,
              29.312704095317592
            ],
            [
              54.13553500485877,
              29.313534222257733
            ],
            [
              54.1359758058536,
              29.314330315318188
            ],
            [
              54.136503525217066,
              29.31508470692674
            ],
            [
              54.13711308206168,
              29.315790130973163
            ],
            [
              54.13779860690734,
              29.316439792820706
            ],
            [
              54.13855349817353,
              29.317027434781306
            ],
            [
              54.139370485740834,
              29.317547396422388
            ],
            [
              54.140241700970044,
              29.317994669122985
            ],
            [
              54.14115875250462,
              29.31836494435204
            ],
            [
              54.142112807125436,
              29.31865465520236
            ],
            [
              54.14309467487761,
              29.31886101077851
            ],
            [
              54.14409489764735,
              29.31898202310634
            ],
            [
              54.14510384033304,
              29.319016526303493
            ],
            [
              54.14611178372916,
              29.318964187825536
            ],
            [
              54.14710901822509,
              29.318825511678444
            ],
            [
              54.148085937412596,
              29.318601833566447
            ],
            [
              54.14903313069675,
              29.31829530802159
            ],
            [
              54.14994147401463,
              29.317908887639454
            ],
            [
              54.15080221778483,
              29.317446294621362
            ],
            [
              54.15160707123748,
              29.316911984898383
            ],
            [
              54.1523482823103,
              29.316311105183235
            ],
            [
              54.15301871233912,
              29.31564944336556
            ],
            [
              54.1536119048223,
              29.3149333727294
            ],
            [
              54.15412214759625,
              29.31416979053204
            ],
            [
              54.154544527823354,
              29.31336605153714
            ],
            [
              54.154874979263816,
              29.312529897143907
            ],
            [
              54.17486941382151,
              29.252529704043138
            ]
          ]
        ]
      },
      "properties": {
        "fault_id": "FLT-02",
        "fault_name_fa": "پهنه برشی امتدادلغز راست‌بر قدیمی افیولیت نیریز",
        "fault_name_en": "Neyriz ophiolite palaeo-transform dextral shear zone",
        "buffer_km": 1,
        "buffer_distance_m": 1000,
        "precision_class": "B",
        "geometry_method": "metric buffer around approximate fault trace in UTM zone 40N",
        "source_ids": "S5;S6",
        "buffer_crs": "EPSG:32640",
        "boundary_status_fa": "بافر دقیق محاسباتی است اما بر مبنای خط گسل تقریبی ساخته شده است."
      }
    },
    {
      "type": "Feature",
      "geometry": {
        "type": "Polygon",
        "coordinates": [
          [
            [
              54.184739372803435,
              29.25505871019346
            ],
            [
              54.204727189321765,
              29.19506157918928
            ],
            [
              54.224716118820375,
              29.13506120699269
            ],
            [
              54.225186050084,
              29.133340063467156
            ],
            [
              54.22546155615821,
              29.131586765210262
            ],
            [
              54.225539993321306,
              29.129818199284358
            ],
            [
              54.22542061622826,
              29.128051398963528
            ],
            [
              54.22510458470267,
              29.12630337965501
            ],
            [
              54.22459495217672,
              29.12459097502588
            ],
            [
              54.22389663590568,
              29.122930674913434
            ],
            [
              54.22301636925834,
              29.121338466578987
            ],
            [
              54.22196263655629,
              29.119829680831767
            ],
            [
              54.22074559110174,
              29.118418844501228
            ],
            [
              54.21937695719331,
              29.11711954067421
            ],
            [
              54.217869917081266,
              29.115944278037347
            ],
            [
              54.21623898395579,
              29.114904370577506
            ],
            [
              54.21449986219397,
              29.11400982879203
            ],
            [
              54.21266929621045,
              29.11326926345022
            ],
            [
              54.210764909364066,
              29.11268980282631
            ],
            [
              54.20880503446534,
              29.112277024195134
            ],
            [
              54.20680853750857,
              29.112034900244428
            ],
            [
              54.20479463631473,
              29.111965760915247
            ],
            [
              54.20278271581938,
              29.112070271034117
            ],
            [
              54.20079214177011,
              29.11234742394969
            ],
            [
              54.19884207461316,
              29.112794551233613
            ],
            [
              54.196951285346636,
              29.113407348351963
            ],
            [
              54.195137975099186,
              29.114179916061012
            ],
            [
              54.19341960015826,
              29.115104817131087
            ],
            [
              54.19181270412079,
              29.116173147855314
            ],
            [
              54.19033275877278,
              29.11737462365933
            ],
            [
              54.188994015222285,
              29.118697677992667
            ],
            [
              54.18780936671428,
              29.120129573555122
            ],
            [
              54.186790224446355,
              29.12165652479373
            ],
            [
              54.18594640758143,
              29.123263830496715
            ],
            [
              54.18528604852059,
              29.124936015214306
            ],
            [
              54.16527606801444,
              29.184932394004115
            ],
            [
              54.14526389387793,
              29.24493524828302
            ],
            [
              54.12525168379875,
              29.30493810830996
            ],
            [
              54.12478054350265,
              29.306659004134854
            ],
            [
              54.12450410482202,
              29.30841208753636
            ],
            [
              54.124425039639945,
              29.31018047723745
            ],
            [
              54.12454411953307,
              29.311947143723863
            ],
            [
              54.12486020795151,
              29.31369507320713
            ],
            [
              54.12537027077027,
              29.315407431469655
            ],
            [
              54.12606940512578,
              29.317067726014056
            ],
            [
              54.126950886274585,
              29.318659964954296
            ],
            [
              54.128006232036725,
              29.320168811116222
            ],
            [
              54.12922528421555,
              29.3215797298597
            ],
            [
              54.13059630622009,
              29.322879129194614
            ],
            [
              54.13210609595798,
              29.32405449083568
            ],
            [
              54.1337401129169,
              29.32509449092811
            ],
            [
              54.13548261821309,
              29.32598910927496
            ],
            [
              54.137316826257795,
              29.326729726007496
            ],
            [
              54.13922506657719,
              29.327309204761143
            ],
            [
              54.14118895422129,
              29.32772196154976
            ],
            [
              54.14318956711162,
              29.327964018669103
            ],
            [
              54.145207628608496,
              29.328033043105577
            ],
            [
              54.14722369352677,
              29.32792836907646
            ],
            [
              54.14921833579419,
              29.3276510044818
            ],
            [
              54.15117233593019,
              29.32720362120416
            ],
            [
              54.153066866524256,
              29.326590529349485
            ],
            [
              54.15488367391277,
              29.325817635678337
            ],
            [
              54.15660525429103,
              29.324892386629816
            ],
            [
              54.15821502255188,
              29.323823696490884
            ],
            [
              54.159697472214866,
              29.322621861406883
            ],
            [
              54.16103832489761,
              29.32129846006721
            ],
            [
              54.162224667884885,
              29.319866242028354
            ],
            [
              54.16324507846817,
              29.318339004756396
            ],
            [
              54.1640897338589,
              29.316731460579874
            ],
            [
              54.164750505620574,
              29.31505909484054
            ],
            [
              54.184739372803435,
              29.25505871019346
            ]
          ]
        ]
      },
      "properties": {
        "fault_id": "FLT-02",
        "fault_name_fa": "پهنه برشی امتدادلغز راست‌بر قدیمی افیولیت نیریز",
        "fault_name_en": "Neyriz ophiolite palaeo-transform dextral shear zone",
        "buffer_km": 2,
        "buffer_distance_m": 2000,
        "precision_class": "B",
        "geometry_method": "metric buffer around approximate fault trace in UTM zone 40N",
        "source_ids": "S5;S6",
        "buffer_crs": "EPSG:32640",
        "boundary_status_fa": "بافر دقیق محاسباتی است اما بر مبنای خط گسل تقریبی ساخته شده است."
      }
    }
  ]
}