{
"type": "FeatureCollection",
"name": "faults_approximate_v3",
"crs": { "type": "name", "properties": { "name": "urn:ogc:def:crs:OGC:1.3:CRS84" } },
"features": [
{ "type": "Feature", "properties": { "fault_id": "FLT-01", "name_fa": "پهنه گسلی اصلی زاگرس / مرز افیولیت نیریز", "name_en": "Main Zagros thrust / Neyriz ophiolite boundary fault zone", "trend_fa": "NW–SE", "fault_type_fa": "گسل تراستی/زون مرزی؛ تفسیر منطقه‌ای", "precision_class": "B", "geometry_method": "approximate trace reconstructed from published NW–SE trend and regional relation; not digitized from official GIS", "source_ids": "S1;S2;S3;S4", "source_note_fa": "مطالعه MT وجود پهنه گسلی با روند NW–SE و جدایش افیولیت نیریز از زون سنندج–سیرجان را گزارش می‌کند." }, "geometry": { "type": "LineString", "coordinates": [ [ 54.12, 29.27 ], [ 54.205, 29.205 ], [ 54.305, 29.125 ], [ 54.405, 29.06 ] ] } },
{ "type": "Feature", "properties": { "fault_id": "FLT-02", "name_fa": "پهنه برشی امتدادلغز راست‌بر قدیمی افیولیت نیریز", "name_en": "Neyriz ophiolite palaeo-transform dextral shear zone", "trend_fa": "NNW–SSE to NW–SE", "fault_type_fa": "پهنه برشی/گسل ترانسفورم قدیمی", "precision_class": "B", "geometry_method": "approximate trace reconstructed from published Neyriz ophiolite structural-map description; not digitized from official GIS", "source_ids": "S5;S6", "source_note_fa": "مطالعات ساختاری، پهنه برشی ترانسفورم قدیمی در افیولیت نیریز را در حدود 12 کیلومتری شمال‌غرب نیریز و با روند NNW–SSE گزارش می‌کنند." }, "geometry": { "type": "LineString", "coordinates": [ [ 54.145, 29.31 ], [ 54.165, 29.25 ], [ 54.185, 29.19 ], [ 54.205, 29.13 ] ] } }
]
}
