{
"type": "FeatureCollection",
"name": "host_lithology_units_v3",
"crs": { "type": "name", "properties": { "name": "urn:ogc:def:crs:OGC:1.3:CRS84" } },
"features": [
{ "type": "Feature", "properties": { "unit_id": "HOST-01", "unit_name_fa": "چرت رادیولاریتی / واحد پیچکان", "unit_name_en": "Radiolaritic chert / Pichkan Zone host", "lithology_class_fa": "چرت رادیولاریتی و سنگ‌های سیلیسی لایه‌ای", "host_relation_fa": "سنگ میزبان مستقیم رخداد منگنز نصیرآباد؛ میان‌لایه‌های کانه‌دار منگنزدار در چرت رادیولاریتی گزارش شده‌اند.", "map_unit_code": "Not recoverable from available public raster", "precision_class": "B", "geometry_method": "generalized_screening_envelope_from_published occurrence coordinates and location descriptions", "boundary_status_fa": "مرز تقریبی برای غربالگری؛ رقومی‌سازی مستقیم از ورقه رسمی نیست", "source_ids": "S1;S2;S3;S4", "source_note_fa": "موقعیت رخداد در 29°10′N, 54°14′E و ارتباط با چرت رادیولاریتی پیچکان از منابع علمی است؛ پلیگان، حریم تقریبی پیرامون نقطه رخداد است." }, "geometry": { "type": "Polygon", "coordinates": [ [ [ 54.22, 29.158 ], [ 54.247, 29.158 ], [ 54.247, 29.175 ], [ 54.22, 29.175 ], [ 54.22, 29.158 ] ] ] } },
{ "type": "Feature", "properties": { "unit_id": "HOST-02", "unit_name_fa": "مجموعه افیولیتی نیریز", "unit_name_en": "Neyriz ophiolitic complex", "lithology_class_fa": "مجموعه افیولیتی؛ شامل سنگ‌های مافیک و اولترامافیک و واحدهای همراه", "host_relation_fa": "محیط زمین‌شناختی/سنگی همراه رخداد؛ چرت‌های رادیولاریتی و کانه‌زایی منگنز در مجاورت افیولیت نیریز گزارش شده‌اند.", "map_unit_code": "Not recoverable from available public raster", "precision_class": "B", "geometry_method": "generalized regional screening envelope around the published Nasirabad location", "boundary_status_fa": "مرز تقریبی منطقه‌ای؛ به‌هیچ‌وجه مرز رسمی واحد زمین‌شناسی تلقی نشود", "source_ids": "S1;S2;S7;S8", "source_note_fa": "ارتباط رخداد نصیرآباد با افیولیت نیریز و زون ساختاری از مقالات علمی تأیید می‌شود؛ پلیگان برای هدف‌گذاری اولیه تعمیم یافته است." }, "geometry": { "type": "Polygon", "coordinates": [ [ [ 54.18, 29.13 ], [ 54.285, 29.13 ], [ 54.285, 29.205 ], [ 54.18, 29.205 ], [ 54.18, 29.13 ] ] ] } }
]
}
