{
"type": "FeatureCollection",
"name": "manganese_prospectivity",
"crs": { "type": "name", "properties": { "name": "urn:ogc:def:crs:OGC:1.3:CRS84" } },
"features": [
{ "type": "Feature", "properties": { "grid_id": "GRID-213", "host_score": 35, "fault_score": 25, "analogue_score": 15, "structural_intersection_score": 0, "distance_to_nearest_fault_m": 571.8, "distance_to_known_m": 965.3, "excluded_known_occurrence": false, "data_confidence_score": 30, "manganese_score": 75, "candidate_id": "MN-V3-01", "rank": 1, "commodity": "manganese", "model_status": "SCREENING_ONLY", "interpretation_fa": "امتیاز غربالگری منگنز است؛ احتمال، ذخیره یا عیار نیست." }, "geometry": { "type": "Polygon", "coordinates": [ [ [ 54.240699844702412, 29.165175710577177 ], [ 54.240579206070421, 29.169683329302575 ], [ 54.245715128334808, 29.169789123630938 ], [ 54.245835543123164, 29.165281485444478 ], [ 54.240699844702412, 29.165175710577177 ] ] ] } },
{ "type": "Feature", "properties": { "grid_id": "GRID-232", "host_score": 35, "fault_score": 25, "analogue_score": 10, "structural_intersection_score": 0, "distance_to_nearest_fault_m": 496.7, "distance_to_known_m": 1811.2, "excluded_known_occurrence": false, "data_confidence_score": 30, "manganese_score": 70, "candidate_id": "MN-V3-02", "rank": 2, "commodity": "manganese", "model_status": "SCREENING_ONLY", "interpretation_fa": "امتیاز غربالگری منگنز است؛ احتمال، ذخیره یا عیار نیست." }, "geometry": { "type": "Polygon", "coordinates": [ [ [ 54.245594686049806, 29.174296758327486 ], [ 54.245474216263091, 29.178804389533735 ], [ 54.25061061387462, 29.178910026122423 ], [ 54.250730859710572, 29.174402375487922 ], [ 54.245594686049806, 29.174296758327486 ] ] ] } },
{ "type": "Feature", "properties": { "grid_id": "GRID-228", "host_score": 35, "fault_score": 25, "analogue_score": 10, "structural_intersection_score": 0, "distance_to_nearest_fault_m": 949.6, "distance_to_known_m": 1734.7, "excluded_known_occurrence": false, "data_confidence_score": 30, "manganese_score": 70, "candidate_id": "MN-V3-03", "rank": 3, "commodity": "manganese", "model_status": "SCREENING_ONLY", "interpretation_fa": "امتیاز غربالگری منگنز است؛ احتمال، ذخیره یا عیار نیست." }, "geometry": { "type": "Polygon", "coordinates": [ [ [ 54.246076290230206, 29.156266198603564 ], [ 54.245955930419939, 29.160773843768553 ], [ 54.251091432534579, 29.160879402654178 ], [ 54.251211568598158, 29.156371738067563 ], [ 54.246076290230206, 29.156266198603564 ] ] ] } },
{ "type": "Feature", "properties": { "grid_id": "GRID-164", "host_score": 35, "fault_score": 25, "analogue_score": 10, "structural_intersection_score": 0, "distance_to_nearest_fault_m": 884.8, "distance_to_known_m": 1195.3, "excluded_known_occurrence": false, "data_confidence_score": 30, "manganese_score": 70, "candidate_id": "MN-V3-04", "rank": 4, "commodity": "manganese", "model_status": "SCREENING_ONLY", "interpretation_fa": "امتیاز غربالگری منگنز است؛ احتمال، ذخیره یا عیار نیست." }, "geometry": { "type": "Polygon", "coordinates": [ [ [ 54.225050266934225, 29.173872323417747 ], [ 54.224928901395252, 29.178379876549705 ], [ 54.230065188673386, 29.17848629978241 ], [ 54.230186330281938, 29.173978727077685 ], [ 54.225050266934225, 29.173872323417747 ] ] ] } },
{ "type": "Feature", "properties": { "grid_id": "GRID-198", "host_score": 35, "fault_score": 25, "analogue_score": 10, "structural_intersection_score": 0, "distance_to_nearest_fault_m": 194.0, "distance_to_known_m": 1163.8, "excluded_known_occurrence": false, "data_confidence_score": 30, "manganese_score": 70, "candidate_id": "MN-V3-05", "rank": 5, "commodity": "manganese", "model_status": "SCREENING_ONLY", "interpretation_fa": "امتیاز غربالگری منگنز است؛ احتمال، ذخیره یا عیار نیست." }, "geometry": { "type": "Polygon", "coordinates": [ [ [ 54.235322421284451, 29.174084934118525 ], [ 54.235201503611428, 29.178592526359889 ], [ 54.24033784615834, 29.178698556278277 ], [ 54.240458539890753, 29.174190944536406 ], [ 54.235322421284451, 29.174084934118525 ] ] ] } },
{ "type": "Feature", "properties": { "grid_id": "GRID-177", "host_score": 35, "fault_score": 17, "analogue_score": 15, "structural_intersection_score": 0, "distance_to_nearest_fault_m": 1985.7, "distance_to_known_m": 932.9, "excluded_known_occurrence": false, "data_confidence_score": 30, "manganese_score": 67, "candidate_id": "MN-V3-06", "rank": 6, "commodity": "manganese", "model_status": "SCREENING_ONLY", "interpretation_fa": "امتیاز غربالگری منگنز است؛ احتمال، ذخیره یا عیار نیست." }, "geometry": { "type": "Polygon", "coordinates": [ [ [ 54.230670620218994, 29.155948401310024 ], [ 54.230549589199107, 29.160455987993416 ], [ 54.235685008701196, 29.160562136434333 ], [ 54.235805815989629, 29.156054530220953 ], [ 54.230670620218994, 29.155948401310024 ] ] ] } },
{ "type": "Feature", "properties": { "grid_id": "GRID-129", "host_score": 35, "fault_score": 17, "analogue_score": 10, "structural_intersection_score": 0, "distance_to_nearest_fault_m": 1937.0, "distance_to_known_m": 1638.6, "excluded_known_occurrence": false, "data_confidence_score": 30, "manganese_score": 62, "candidate_id": "MN-V3-07", "rank": 7, "commodity": "manganese", "model_status": "SCREENING_ONLY", "interpretation_fa": "امتیاز غربالگری منگنز است؛ احتمال، ذخیره یا عیار نیست." }, "geometry": { "type": "Polygon", "coordinates": [ [ [ 54.214900008983939, 29.169151408877671 ], [ 54.21477822340735, 29.173658926256017 ], [ 54.219914231292357, 29.173765723142566 ], [ 54.220035792999774, 29.169258186120874 ], [ 54.214900008983939, 29.169151408877671 ] ] ] } },
{ "type": "Feature", "properties": { "grid_id": "GRID-126", "host_score": 35, "fault_score": 8, "analogue_score": 10, "structural_intersection_score": 0, "distance_to_nearest_fault_m": 2062.9, "distance_to_known_m": 1797.7, "excluded_known_occurrence": false, "data_confidence_score": 30, "manganese_score": 53, "candidate_id": "MN-V3-08", "rank": 8, "commodity": "manganese", "model_status": "SCREENING_ONLY", "interpretation_fa": "امتیاز غربالگری منگنز است؛ احتمال، ذخیره یا عیار نیست." }, "geometry": { "type": "Polygon", "coordinates": [ [ [ 54.215265198917635, 29.155628835744952 ], [ 54.215143496733965, 29.160136363621714 ], [ 54.220278833164492, 29.160243101583244 ], [ 54.220400311632019, 29.155735554068166 ], [ 54.215265198917635, 29.155628835744952 ] ] ] } },
{ "type": "Feature", "properties": { "grid_id": "GRID-017", "host_score": 15, "fault_score": 25, "analogue_score": 0, "structural_intersection_score": 10, "distance_to_nearest_fault_m": 62.3, "distance_to_known_m": 6399.0, "excluded_known_occurrence": false, "data_confidence_score": 30, "manganese_score": 50, "candidate_id": "MN-V3-09", "rank": 9, "commodity": "manganese", "model_status": "SCREENING_ONLY", "interpretation_fa": "امتیاز غربالگری منگنز است؛ احتمال، ذخیره یا عیار نیست." }, "geometry": { "type": "Polygon", "coordinates": [ [ [ 54.183100073580739, 29.204565709318679 ], [ 54.183223399171311, 29.200058335140643 ], [ 54.18000014989267, 29.199990411353703 ], [ 54.180000015913159, 29.204500373830093 ], [ 54.183100073580739, 29.204565709318679 ] ] ] } },
{ "type": "Feature", "properties": { "grid_id": "GRID-051", "host_score": 15, "fault_score": 25, "analogue_score": 0, "structural_intersection_score": 10, "distance_to_nearest_fault_m": 936.1, "distance_to_known_m": 5731.1, "excluded_known_occurrence": false, "data_confidence_score": 30, "manganese_score": 50, "candidate_id": "MN-V3-10", "rank": 10, "commodity": "manganese", "model_status": "SCREENING_ONLY", "interpretation_fa": "امتیاز غربالگری منگنز است؛ احتمال، ذخیره یا عیار نیست." }, "geometry": { "type": "Polygon", "coordinates": [ [ [ 54.188360583544963, 29.200166430809706 ], [ 54.188237482149951, 29.204673824859668 ], [ 54.193374918818407, 29.204781743559746 ], [ 54.19349779601265, 29.200274329673988 ], [ 54.188360583544963, 29.200166430809706 ] ] ] } }
]
}
